[{"OBJECT_NAME":"STARLINK-2426","OBJECT_ID":"2021-018BB","EPOCH":"2026-03-09T17:33:00.521856","MEAN_MOTION":15.30201942,"ECCENTRICITY":0.00012544,"INCLINATION":53.1591,"RA_OF_ASC_NODE":244.8074,"ARG_OF_PERICENTER":73.0469,"MEAN_ANOMALY":287.067,"EPHEMERIS_TYPE":0,"CLASSIFICATION_TYPE":"U","NORAD_CAT_ID":47836,"ELEMENT_SET_NO":999,"REV_AT_EPOCH":27670,"BSTAR":0.00020717241,"MEAN_MOTION_DOT":5.782e-5,"MEAN_MOTION_DDOT":0},{"OBJECT_NAME":"KUIPER-00213","OBJECT_ID":"2026-030P","EPOCH":"2026-03-09T22:00:01.999584","MEAN_MOTION":15.32626943,"ECCENTRICITY":0.00152813,"INCLINATION":51.8816,"RA_OF_ASC_NODE":218.5142,"ARG_OF_PERICENTER":64.2462,"MEAN_ANOMALY":206.8369,"EPHEMERIS_TYPE":0,"CLASSIFICATION_TYPE":"U","NORAD_CAT_ID":67777,"ELEMENT_SET_NO":999,"REV_AT_EPOCH":502,"BSTAR":0.0016072376,"MEAN_MOTION_DOT":0.00051551,"MEAN_MOTION_DDOT":0}]
